COSMOS 2419 (714)       
1 28915U 05050A   17139.84077513 -.00000023  00000-0  00000-0 0  9997
2 28915  65.4834  66.8061 0017488 350.2401 304.4418  2.13110263 88725
COSMOS 2425 (716)       
1 29670U 06062A   17139.86276900  .00000006  00000-0  10000-3 0  9997
2 29670  65.4746 305.8159 0020914 351.4453  12.4640  2.13105186 80934
COSMOS 2426 (717)       
1 29671U 06062B   17139.74506089  .00000007  00000-0  10000-3 0  9990
2 29671  65.4950 305.9100 0017655 157.9837 334.1516  2.13102905 80934
COSMOS 2424 (715)       
1 29672U 06062C   17139.63183890  .00000007  00000-0  10000-3 0  9990
2 29672  65.4782 305.8358 0017112 156.4928  64.1449  2.13102175 80928
COSMOS 2433 (720)       
1 32275U 07052A   17139.65810444 -.00000022  00000-0  10000-3 0  9995
2 32275  65.4995  66.5905 0003863 297.1265 101.8911  2.13104611 74441
COSMOS 2432 (719)       
1 32276U 07052B   17139.74621043 -.00000023  00000-0  10000-3 0  9992
2 32276  65.5103  66.6585 0013552 335.7513  83.7992  2.13104086 74443
COSMOS 2434 (721)       
1 32393U 07065A   17139.68156914  .00000006  00000-0  00000-0 0  9995
2 32393  65.0937 304.9847 0006011 100.3735 206.3767  2.13102855 73147
COSMOS 2436 (723)       
1 32395U 07065C   17139.76276352  .00000005  00000-0  10000-3 0  9998
2 32395  65.1029 305.0283 0015399   8.1090  49.4760  2.13104256 73085
COSMOS 2443 (725)       
1 33379U 08046B   17137.50938083 -.00000017  00000-0  00000-0 0  9997
2 33379  65.4264  66.0493 0011265 183.3205 268.3164  2.13099610 67261
COSMOS 2456 (730)       
1 36111U 09070A   17139.62566167  .00000073  00000-0  00000-0 0  9998
2 36111  64.1785 184.5537 0005775 301.6562 133.1986  2.13102900 57815
COSMOS 2457 (733)       
1 36112U 09070B   17139.27534519  .00000070  00000-0  00000-0 0  9993
2 36112  64.1610 184.4850 0006300 184.8150 109.9792  2.13101563 57808
COSMOS 2458 (734)       
1 36113U 09070C   17139.46664703  .00000072  00000-0  10000-3 0  9990
2 36113  64.1661 184.4864 0002143 309.2753 180.2373  2.13102109 57818
COSMOS 2459 (731)       
1 36400U 10007A   17139.71533927 -.00000024  00000-0  10000-3 0  9990
2 36400  65.4075  65.6972 0029609 351.3636 313.8781  2.13102249 56163
COSMOS 2461 (735)       
1 36401U 10007B   17139.58506113 -.00000024  00000-0  10000-3 0  9993
2 36401  65.4007  65.6812 0006829  49.0678  66.8282  2.13102301 56168
COSMOS 2460 (732)       
1 36402U 10007C   17139.61560295 -.00000024  00000-0  10000-3 0  9999
2 36402  65.3903  65.6519 0002315 340.6610 200.0025  2.13101721 56161
COSMOS 2465 (737)       
1 37138U 10041B   17139.76411050  .00000004  00000-0  00000-0 0  9997
2 37138  64.6915 304.9837 0035397 168.9024 245.8655  2.13104229 52248
COSMOS 2464 (736)       
1 37139U 10041C   17139.69546178  .00000004  00000-0  00000-0 0  9990
2 37139  64.6980 304.9861 0023896  17.2803 167.8705  2.13102611 52231
COSMOS 2471 (701K)      
1 37372U 11009A   17139.72868513 -.00000025  00000-0  00000-0 0  9992
2 37372  65.3889  65.5969 0007772 245.7949 157.1643  2.13107595 48446
COSMOS 2474 (742)       
1 37829U 11055A   17139.72674439  .00000074  00000-0  00000-0 0  9995
2 37829  64.5027 185.1028 0010082 252.6568 119.6661  2.13101927 43817
COSMOS 2476 (744)       
1 37867U 11064A   17139.75795911  .00000074  00000-0  00000-0 0  9999
2 37867  64.4827 185.1744 0019261 246.0484 196.1559  2.13101999 43166
COSMOS 2477 (745)       
1 37868U 11064B   17139.59414757  .00000072  00000-0  00000-0 0  9996
2 37868  64.4914 185.2239 0017105 247.5195 248.1456  2.13101791 43113
COSMOS 2475 (743)       
1 37869U 11064C   17139.62716028  .00000073  00000-0  00000-0 0  9998
2 37869  64.4988 185.2143 0022148 271.4863 205.8795  2.13101950 43124
COSMOS 2485 (747)       
1 39155U 13019A   17139.68608009  .00000073  00000-0  00000-0 0  9995
2 39155  64.6520 185.1992 0019527 241.2230 190.8662  2.13102005 31630
COSMOS 2492 (754)       
1 39620U 14012A   17139.68434560 -.00000024  00000-0  10000-3 0  9996
2 39620  65.2800  65.5912 0017046 332.1104 132.7484  2.13103436 24584
COSMOS 2500 (755)       
1 40001U 14032A   17139.64292208 -.00000024  00000-0  00000-0 0  9996
2 40001  65.2201  65.5922 0004858 228.0592  68.1079  2.13102834 22790
COSMOS 2501 (702K)      
1 40315U 14075A   17139.65633535  .00000004  00000-0  00000-0 0  9991
2 40315  64.4245 306.3386 0014108 204.0733 268.8137  2.13098531 19201
COSMOS 2514 (751)       
1 41330U 16008A   17139.72923273 -.00000025  00000-0  00000-0 0  9990
2 41330  65.0219  65.7393 0008306 229.6835 312.6220  2.13103448  9967
COSMOS 2516 (753)       
1 41554U 16032A   17139.90301752  .00000004  00000-0  00000-0 0  9993
2 41554  64.6462 306.0872 0010047 214.2601 354.1145  2.13101547  7579
